[{"OBJECT_NAME":"K-HERO","OBJECT_ID":"2025-274L","EPOCH":"2026-03-09T07:34:25.128768","MEAN_MOTION":14.93525062,"ECCENTRICITY":0.00141369,"INCLINATION":97.7443,"RA_OF_ASC_NODE":359.1816,"ARG_OF_PERICENTER":357.698,"MEAN_ANOMALY":2.4172,"EPHEMERIS_TYPE":0,"CLASSIFICATION_TYPE":"U","NORAD_CAT_ID":66660,"ELEMENT_SET_NO":999,"REV_AT_EPOCH":1532,"BSTAR":0.00026499368,"MEAN_MOTION_DOT":2.739e-5,"MEAN_MOTION_DDOT":0},{"OBJECT_NAME":"THOR AGENA B DEB","OBJECT_ID":"1965-098J","EPOCH":"2026-03-09T15:55:33.898656","MEAN_MOTION":12.39065528,"ECCENTRICITY":0.1280637,"INCLINATION":79.7465,"RA_OF_ASC_NODE":159.9057,"ARG_OF_PERICENTER":252.7397,"MEAN_ANOMALY":243.9853,"EPHEMERIS_TYPE":0,"CLASSIFICATION_TYPE":"U","NORAD_CAT_ID":2153,"ELEMENT_SET_NO":999,"REV_AT_EPOCH":67470,"BSTAR":0.00058104,"MEAN_MOTION_DOT":1.819e-5,"MEAN_MOTION_DDOT":0}]
